IDEFIX & ARIANE 42P R/B 
1 27422U 02021B   25356.23267182  .00000280  00000+0  12320-3 0  9994
2 27422  98.5800 290.8008 0012834  58.0832 302.1598 14.30956831232948
AQUA                    
1 27424U 02022A   25355.93289618  .00000871  00000+0  18434-3 0  9999
2 27424  98.4050 316.9619 0001439 110.3776 326.1362 14.61820667257372
CZ-4B R/B               
1 27432U 02024C   25356.12265263  .00000060  00000+0  54143-4 0  9990
2 27432  98.8985  44.8612 0049295 242.7563 171.6272 14.14529741218274
MIDORI II (ADEOS-II)    
1 27597U 02056A   25355.74650844  .00000196  00000+0  94984-4 0  9994
2 27597  98.7651 308.7506 0000650 149.6129 210.5090 14.29211121199167
H-2A R/B                
1 27601U 02056E   25355.89289257  .00000352  00000+0  13772-3 0  9991
2 27601  98.3079 314.2856 0071070  34.2339  26.0480 14.33683744202964
CZ-4B R/B               
1 28059U 03049C   25356.22382481  .00000405  00000+0  10433-3 0  9993
2 28059  98.6794 343.1462 0049340 107.6723 252.9868 14.54918182175330
CZ-2C R/B               
1 28222U 04012C   25356.12949199  .00042474  00000+0  60251-3 0  9995
2 28222  97.7403  49.5304 0016525 233.7201 126.2527 15.56173419192188
SL-16 R/B               
1 28353U 04021B   25356.16784450  .00000016  00000+0  32902-4 0  9990
2 28353  71.0005  35.1802 0004781 184.3737 175.7344 14.14578866111877
CZ-4B R/B               
1 28415U 04035C   25355.66743155  .00006469  00000+0  23975-3 0  9992
2 28415  97.3592  25.8926 0031611 244.2023 115.5954 15.27504209167995
CZ-2C R/B               
1 28480U 04046B   25356.21471280  .00000237  00000+0  10328-3 0  9990
2 28480  98.1997 271.0039 0140048  24.4460 336.3280 14.26945930 97459
ARIANE 5 R/B            
1 28499U 04049H   25356.01838038  .00001139  00000+0  13266-3 0  9995
2 28499  98.2527 156.6327 0083392 242.4474 116.8249 14.85034331134268
CZ-2D R/B               
1 28738U 05024B   25355.99773507  .00032998  00000+0  51628-3 0  9991
2 28738  97.3622   3.6905 0003991 331.3795  28.7239 15.53688567127695
